GALAXY 25 (G-25)        
1 24812U 97026A   22295.51060168  .00000007  00000+0  00000+0 0  9993
2 24812   4.0036  82.3414 0004216 163.5885  34.9245  1.00272078 93009
INTELSAT 5 (IS-5)       
1 24916U 97046A   22295.58633302 -.00000050  00000+0  00000+0 0  9992
2 24916   7.4973  60.1482 0005556 163.3586 184.7220  1.00270997 92244
GALAXY 11 (G-11)        
1 26038U 99071A   22295.33541604 -.00000152  00000+0  00000+0 0  9998
2 26038   3.3324  85.9658 0001918 202.2055 130.2500  1.00271494 83709
INTELSAT 9 (IS-9)       
1 26451U 00043A   22295.27219574 -.00000275  00000+0  00000+0 0  9995
2 26451   7.4810  60.3256 0003410 165.4640 212.9078  1.00269876 30771
INTELSAT 1R (IS-1R)     
1 26608U 00072A   22295.57513490 -.00000126  00000+0  00000+0 0  9993
2 26608   4.7438  79.5387 0000711 227.4855  88.1393  1.00271600 27942
INTELSAT 10 (IS-10)     
1 26766U 01019A   22295.53290240  .00000047  00000+0  00000+0 0  9992
2 26766   5.8756  72.2473 0003545 152.5862 175.7829  1.00272811 32243
INTELSAT 901 (IS-901)   
1 26824U 01024A   22295.34849610 -.00000194  00000+0  00000+0 0  9997
2 26824   0.0464  68.7297 0001195 158.7938 261.2516  1.00272811  9615
INTELSAT 902 (IS-902)   
1 26900U 01039A   22295.41572762 -.00000272  00000+0  00000+0 0  9994
2 26900   2.7212  87.5537 0002974 138.3881 264.4672  1.00271511 77320
INTELSAT 904 (IS-904)   
1 27380U 02007A   22295.41982604 -.00000202  00000+0  00000+0 0  9996
2 27380   3.5502  84.5445 0002801 125.1661 302.7941  1.00272627 75713
DIRECTV 5 (TEMPO 1)     
1 27426U 02023A   22295.54083479 -.00000046  00000+0  00000+0 0  9997
2 27426   1.4452  91.5921 0003436 131.2037 252.7773  1.00272169 74753
INTELSAT 905 (IS-905)   
1 27438U 02027A   22295.42078524 -.00000173  00000+0  00000+0 0  9997
2 27438   3.3723  85.2680 0002473 123.0344 309.5513  1.00271862 37997
GALAXY 3C (G-3C)        
1 27445U 02030A   22295.48230036 -.00000144  00000+0  00000+0 0  9991
2 27445   0.2976  89.7163 0000850 217.5751 162.3824  1.00271542 33120
INTELSAT 906 (IS-906)   
1 27513U 02041A   22295.51025287  .00000024  00000+0  00000+0 0  9999
2 27513   2.3906  88.9790 0003177 128.2261  61.5741  1.00272545 73652
GALAXY 12 (G-12)        
1 27715U 03013B   22295.51743444  .00000069  00000+0  00000+0 0  9994
2 27715   3.5832  84.1921 0002090 145.0265 219.0157  1.00272169 38727
GALAXY 23 (G-23)        
1 27854U 03034A   22295.52744986  .00000021  00000+0  00000+0 0  9992
2 27854   0.0119 222.6456 0002975 350.8921 246.3067  1.00271942 70367
GALAXY 13 (HORIZONS-1)  
1 27954U 03044A   22295.41024719  .00000056  00000+0  00000+0 0  9995
2 27954   0.0246 123.3320 0000279 289.0759 359.1006  1.00270641 33194
INTELSAT 10-02          
1 28358U 04022A   22295.38174292 -.00000004  00000+0  00000+0 0  9993
2 28358   0.0147 222.1026 0000848  17.9622 287.1543  1.00269509 67175
XM-3 (RHYTHM)           
1 28626U 05008A   22295.45260208 -.00000197  00000+0  00000+0 0  9990
2 28626   0.0447  76.7193 0001537 105.3537 286.6494  1.00270949 29253
DIRECTV 8               
1 28659U 05019A   22295.53080684  .00000009  00000+0  00000+0 0  9996
2 28659   0.0135 151.9038 0002934  75.8471 235.2602  1.00271832 63708
GALAXY 28 (G-28)        
1 28702U 05022A   22295.44728479 -.00000177  00000+0  00000+0 0  9997
2 28702   0.0157 312.0742 0002285 300.9956 209.8271  1.00270548 38616
GALAXY 14 (G-14)        
1 28790U 05030A   22295.37549274  .00000165  00000+0  00000+0 0  9995
2 28790   1.5778  90.7676 0001782 116.0524 352.0720  1.00273597 62931
GALAXY 15 (G-15)        
1 28884U 05041A   22295.51743413  .00000069  00000+0  00000+0 0  9991
2 28884   0.1339  89.7181 0003251 147.3148 210.3745  1.00295803 62234
SPACEWAY 2              
1 28903U 05046B   22295.38430672  .00000113  00000+0  00000+0 0  9993
2 28903   2.1894  86.6461 0000458 284.5046  19.1036  1.00271719 37968
GALAXY 16 (G-16)        
1 29236U 06023A   22295.55420319 -.00000119  00000+0  00000+0 0  9992
2 29236   0.0160 249.7879 0002677 322.6824 279.0211  1.00273239 59605
DIRECTV 9S              
1 29494U 06043A   22295.55241992 -.00000105  00000+0  00000+0 0  9993
2 29494   0.0182 204.7026 0002981   7.9780 275.9832  1.00272322 38010
XM-4 (BLUES)            
1 29520U 06049A   22295.45260269 -.00000197  00000+0  00000+0 0  9997
2 29520   0.0455 323.0494 0001789   0.9583 144.6821  1.00270766 38106
GALAXY 17 (G-17)        
1 31307U 07016B   22295.44531373 -.00000166  00000+0  00000+0 0  9990
2 31307   0.0146  41.6042 0002983 184.9379 233.6639  1.00272969 56433
DIRECTV 10              
1 31862U 07032A   22295.54908330 -.00000095  00000+0  00000+0 0  9997
2 31862   0.0025 178.7059 0000249  46.5016 260.6447  1.00271929 32222
SPACEWAY 3              
1 32018U 07036A   22294.54910566 -.00000145  00000+0  00000+0 0  9994
2 32018   0.5453  90.6320 0000437  57.2327 344.8564  1.00271694 33171
INTELSAT 11 (IS-11)     
1 32253U 07044B   22295.41712282 -.00000260  00000+0  00000+0 0  9994
2 32253   0.1066  90.7239 0001764 133.4810 273.8165  1.00272605 55126
HORIZONS-2              
1 32388U 07063B   22295.48269753 -.00000245  00000+0  00000+0 0  9994
2 32388   0.0181 225.5859 0002301   8.8531 256.4151  1.00270349 54440
DIRECTV 11              
1 32729U 08013A   22295.55420367 -.00000118  00000+0  00000+0 0  9996
2 32729   0.0143  39.4924 0000114  72.6293  19.2045  1.00271162 32229
GALAXY 18 (G-18)        
1 32951U 08024A   22295.41041802  .00000033  00000+0  00000+0 0  9998
2 32951   0.0190 221.4828 0002960 349.6547 204.4182  1.00270989 32477
INTELSAT 25 (IS-25)     
1 33153U 08034A   22295.41939003 -.00000216  00000+0  00000+0 0  9997
2 33153   0.0211 247.4322 0003018 322.0644 300.8456  1.00271663 52322
GALAXY 19 (G-19)        
1 33376U 08045A   22295.55576932 -.00000131  00000+0  00000+0 0  9995
2 33376   0.0289 103.4083 0002917 101.5076 289.1505  1.00271905 51530
FM-5                    
1 35493U 09034A   22295.45260250 -.00000192  00000+0  00000+0 0  9995
2 35493   0.0149 269.4319 0000347 158.1423  40.1238  1.00270815 33279
INTELSAT 14 (IS-14)     
1 36097U 09064A   22295.41668684 -.00000265  00000+0  00000+0 0  9999
2 36097   0.0145 206.2151 0002398   9.5201 280.1106  1.00270212 47232
INTELSAT 15 (IS-15)     
1 36106U 09067A   22295.51646559 -.00000178  00000+0  00000+0 0  9994
2 36106   0.0200 298.5273 0002287 280.0143  83.4886  1.00272636 27859
DIRECTV 12              
1 36131U 09075A   22295.54908243 -.00000095  00000+0  00000+0 0  9993
2 36131   0.0153 219.2430 0000015 337.5501 289.1242  1.00269974 33198
INTELSAT 16 (IS-16)     
1 36397U 10006A   22295.48226154 -.00000237  00000+0  00000+0 0  9998
2 36397   0.0176 288.3171 0002471 294.8851 265.1368  1.00272349 46284
XM-5                    
1 37185U 10053A   22295.39871949 -.00000015  00000+0  00000+0 0  9998
2 37185   0.0132 266.2002 0000920 124.4412  28.5499  1.00270445 44108
INTELSAT 17 (IS-17)     
1 37238U 10065B   22295.51060168  .00000006  00000+0  00000+0 0  9996
2 37238   0.0193 223.2254 0002483 346.2232  71.3056  1.00270951 39860
INTELSAT NEW DAWN       
1 37392U 11016A   22295.21699789  .00000163  00000+0  00000+0 0  9992
2 37392   0.0268 135.2413 0001002  98.3393 268.0111  1.00272440 39910
INTELSAT 18 (IS-18)     
1 37834U 11056A   22295.54424440  .00000061  00000+0  00000+0 0  9990
2 37834   0.0378  39.9114 0001831 164.0705 202.9185  1.00270892 40435
INTELSAT 22 (IS-22)     
1 38098U 12011A   22295.52201990 -.00000051  00000+0  00000+0 0  9996
2 38098   0.0202 136.1680 0002755  70.3824  84.4240  1.00272532 38445
INTELSAT 19 (IS-19)     
1 38356U 12030A   22295.58476514 -.00000048  00000+0  00000+0 0  9992
2 38356   0.0174 224.8583 0002927 347.4096 195.2425  1.00271107 37067
INTELSAT 20 (IS-20)     
1 38740U 12043A   22295.51112487 -.00000017  00000+0  00000+0 0  9998
2 38740   0.0224 143.7391 0002948  48.5685  91.1207  1.00271241 37377
INTELSAT 21 (IS-21)     
1 38749U 12045A   22295.48583677 -.00000277  00000+0  00000+0 0  9996
2 38749   0.0395  71.6028 0002278 139.9148 296.3116  1.00273986 37169
INTELSAT 23 (IS-23)     
1 38867U 12057A   22295.43563264 -.00000277  00000+0  00000+0 0  9995
2 38867   0.0186 259.2724 0000935 149.6138  85.8123  1.00274186 36576
FM-6                    
1 39360U 13058A   22294.74146552 -.00000011  00000+0  00000+0 0  9992
2 39360   0.0309 269.3011 0000258 194.2816  77.3719  1.00273304 32967
INTELSAT 30 (IS-30)     
1 40271U 14062A   22295.26359431 -.00000143  00000+0  00000+0 0  9997
2 40271   0.0190 249.6208 0001894 209.1451 291.7805  1.00271202 29201
DIRECTV 14              
1 40333U 14078B   22295.40774720 -.00000117  00000+0  00000+0 0  9992
2 40333   0.0426  59.5430 0000106 320.7634  58.0934  1.00269356 28680
DIRECTV 15              
1 40663U 15026A   22295.40528091 -.00000095  00000+0  00000+0 0  9995
2 40663   0.0164 182.4146 0000395 210.8156  40.6529  1.00272286 27089
SKY MEXICO-1            
1 40664U 15026B   22295.49327735 -.00000227  00000+0  00000+0 0  9994
2 40664   0.0005 351.1459 0002739 241.5571 257.0453  1.00272138 27167
INTELSAT 34 (IS-34)     
1 40874U 15039A   22295.43402531 -.00000277  00000+0  00000+0 0  9998
2 40874   0.0185 220.1902 0000183 244.9056  26.5050  1.00268948 26258
INTELSAT 31 (IS-31)     
1 41581U 16035A   22295.41017712 -.00000143  00000+0  00000+0 0  9994
2 41581   0.0157 239.8554 0001497 339.0074 224.5929  1.00272008 23319
INTELSAT 36 (IS-36)     
1 41747U 16053A   22295.08062785 -.00000017  00000+0  00000+0 0  9991
2 41747   0.0123 243.5249 0001961 124.8809 119.6025  1.00270391 22572
INTELSAT 33E (IS-33E)   
1 41748U 16053B   22295.50938087  .00000057  00000+0  00000+0 0  9999
2 41748   0.0135 219.7278 0001866 355.6888  58.8602  1.00270028 22873
INTELSAT 32E (IS-32E)   
1 41945U 17007B   22295.41712282 -.00000261  00000+0  00000+0 0  9993
2 41945   0.0188 221.7779 0000478 246.2973  29.7363  1.00269335 20875
INTELSAT 35E (IS-35E)   
1 42818U 17041A   22295.41886684 -.00000230  00000+0  00000+0 0  9995
2 42818   0.0287 103.0199 0001780  95.6036 308.5437  1.00271386 19446
INTELSAT 37E (IS-37E)   
1 42950U 17059A   22294.24126840 -.00000135  00000+0  00000+0 0  9996
2 42950   0.0223 227.7929 0002586 340.5753 250.1643  1.00270038 18679
AZERSPACE 2 (IS-38)     
1 43632U 18074A   22293.92618819  .00000141  00000+0  00000+0 0  9994
2 43632   0.0181 208.5678 0001061  38.1592 161.1689  1.00269899 15059
HORIZONS-3E             
1 43633U 18074B   22294.24740289 -.00000026  00000+0  00000+0 0  9991
2 43633   0.0153  52.2309 0001493 245.8074 349.7087  1.00270463 14958
AT&T T-16               
1 44333U 19034A   22295.04688127 -.00000108  00000+0  00000+0 0  9998
2 44333   0.0467  76.3747 0000549 157.2102  72.9158  1.00271059 12253
INTELSAT 39 (IS-39)     
1 44476U 19049B   22293.88799348  .00000037  00000+0  00000+0 0  9990
2 44476   0.0200 247.5243 0000537 133.6878  29.7594  1.00271469 11746
GALAXY 30 (G-30)        
1 46114U 20056C   22295.39271038  .00000044  00000+0  00000+0 0  9998
2 46114   0.0208 250.9923 0002922 321.0726 195.1496  1.00272595  7917
